#dP2024  6 13  0  0  0.00000000      96 __u+U IGS20 FIT  IAC
## 2318 345600.00000000   900.00000000 60474 0.0000000000000
+   54   G02G03G04G05G06G07G08G09G10G11G12G13G14G15G16G17G18
+        G19G20G21G22G23G24G25G26G27G28G29G30G31G32R01R02R03
+        R04R05R07R08R09R11R12R13R14R15R16R17R18R19R20R21R22
+        R24R25R26  0  0  0  0  0  0  0  0  0  0  0  0  0  0
+          0  0  0  0  0  0  0  0  0  0  0  0  0  0  0  0  0
++         7  6  7  7  6  8  7  7  7  7  7  7  7  6  7  6  7
++         6  7  7  7  5  6  7  7  7  7  6  7  7  8  7  6  7
++         6  6  7  7  7  7  7  7  7  7  7  6  6  8  7  7  7
++         7  7  8  0  0  0  0  0  0  0  0  0  0  0  0  0  0
++         0  0  0  0  0  0  0  0  0  0  0  0  0  0  0  0  0
%c M  cc GPS ccc cccc cccc cccc cccc ccccc ccccc ccccc ccccc
%c cc cc ccc ccc cccc cccc cccc cccc ccccc ccccc ccccc ccccc
%f  0.0000000  0.000000000  0.00000000000  0.000000000000000
%f  0.0000000  0.000000000  0.00000000000  0.000000000000000
%i    0    0    0    0      0      0      0      0         0
%i    0    0    0    0      0      0      0      0         0
/* INFORMATION & ANALYSIS CENTER (IAC)      ULTRA-RAPID DATA
/* S/V CLOCKS ARE ALIGNED TO GNSS TIME                      
/* G:C1WC2W R:C1PC2P E:C1XC5X C:C2IC6I J:C1CC2S             
/* PCV:IGS20_2317 OL/AL:FES2004  NONE     YN ORB:CoN CLK:CoN
*  2024 06 13 15 30  0.00000000
PG02  22527.649918  13309.429760   5881.882652   -418.424859
PG03  13672.073375   5372.352084  21975.097247    411.673365
PG04  23800.568391   2522.164924  11678.891622    382.370203
PG05  -7026.437438 -20105.201184 -15995.305708   -176.186775
PG06   2665.039819 -16544.753792  20636.648644    220.644817
PG07  18263.726060  -1050.897060 -18895.427873    -94.168407
PG08  16501.140295   8952.156195 -19058.395093    227.868004
PG09  25467.388953  -7631.785390    289.925870    233.294047
PG10 -10500.551415  23226.918774  -6627.853856    -42.087536
PG11  -9365.814925 -21951.413734  11739.109529   -684.614708
PG12 -12844.295448  -8525.888632  21352.592828   -513.770074
PG13  -7556.899375 -13872.891778 -21594.605045    657.645912
PG14  13258.533578 -20591.303489  -9970.523321    424.502633
PG15 -17380.972849  -7604.939743 -19162.433943    169.728226
PG16   2658.296181  22294.964138 -14159.376254   -265.340895
PG17  19248.363663 -13365.462199  13074.630901    695.086247
PG18 -17357.245124   1812.520301 -20069.206032   -624.408134
PG19  10859.924859 -14948.116190  18750.701964    495.887391
PG20  -2827.099217 -25633.544472  -6614.659443    373.880016
PG21  21339.864473  16744.076168    647.456184    115.702878
PG22   9852.357550 -24763.712797  -1483.253441    -26.785688
PG23 -14727.095942  14308.044706 -16711.337126    249.391193
PG24 -21911.771113 -15100.032662   2621.111634   -477.431759
PG25 -15882.725296   2850.256529  20718.336317    497.283014
PG26  -3905.558106  26060.527649   -722.394438    137.591983
PG27   4752.776691  14575.153969 -21983.061623    -28.070212
PG28  -4741.683645  15543.294614  20998.665598   -287.152461
PG29 -26257.016193   3195.433602   2991.879668   -594.390203
PG30  10387.975740 -11784.163495 -21259.803303   -374.878766
PG31   5202.246117  20762.299491  15255.512048   -227.413492
PG32 -16489.221908  15194.094065  14294.856838   -616.336884
PR01 -20475.195112  15055.493493  -2294.053611     88.271534
PR02 -12093.051002  17278.299490  14348.828487    -23.261752
PR03   3883.147148  10542.656783  22944.203057    101.998724
PR04  17063.648658  -1782.146509  18911.003499    240.904620
PR05  21402.282019 -13070.410774   4734.178752    133.022863
PR07  -4463.441367 -10100.531896 -22954.117957     84.486844
PR08 -17223.614238   2080.526704 -18625.598219     -4.930554
PR09    947.137406 -23645.219228  -9388.700786    192.003365
PR11 -11144.227030 -11251.424214  20003.711324     21.538422
PR12  -9150.868421  10007.670733  21631.618230     41.266007
PR13  -2501.687933  22479.689018  11784.601845    -48.316493
PR14   7043.900424  23279.069334  -7713.457348     26.562659
PR15  11310.784703   9700.907183 -20682.371448     78.850367
PR16   9022.598910  -9776.986485 -21741.596510     26.449504
PR17  15885.883166  13918.375906 -14269.843630     95.497694
PR18  23577.438252   9680.730834   1533.712771    146.820014
PR19  20244.114992   2100.082478  15365.247998   -280.191094
PR20   2518.503080 -10289.717657  23203.754001   -114.437252
PR21 -15620.873822 -14034.299676  14495.323572   -108.946770
PR22 -23431.531807  -9705.973338  -2655.579109    103.169465
PR24  -1658.165963  11057.675298 -22915.429129    -59.700177
PR25 -15516.733014 -14706.046762  13933.563503    -51.901021
PR26 -16488.127319   1181.215182 -19414.959208     -6.399225
*  2024 06 13 15 45  0.00000000
PG02  22762.968671  13750.088954   3090.901597   -418.418518
PG03  13099.832105   7826.509572  21596.745148    411.689271
PG04  22443.955309   3095.409435  13988.747002    382.377544
PG05  -6581.102876 -21735.378255 -13882.204395   -176.188116
PG06   4448.928686 -14944.076226  21542.764886    220.625844
PG07  19765.808228    512.242413 -17429.884573    -94.158658
PG08  14442.909327   9785.230331 -20250.494607    227.884422
PG09  25357.895927  -7322.145198   3129.716372    233.307161
PG10 -10492.385198  22260.086242  -9349.619736    -42.094758
PG11  -8194.795672 -21043.813618  14048.818015   -684.622098
PG12 -12095.075554 -10875.572585  20726.010990   -513.772878
PG13  -5149.590041 -14296.954278 -22005.560371    657.648594
PG14  13211.386604 -19270.199323 -12392.255414    424.510829
PG15 -15492.318804  -8669.534464 -20309.048381    169.732468
PG16   2010.650635  23617.014390 -11843.708665   -265.331535
PG17  20545.674198 -13510.880624  10663.410962    695.081168
PG18 -18899.458267    222.769617 -18729.999676   -624.412594
PG19  12945.166776 -15215.288977  17122.776572    495.892298
PG20  -2547.338754 -26227.351015  -3865.014376    373.879923
PG21  21129.788907  16805.455676  -2148.049827    115.700706
PG22   9961.368742 -24336.759621  -4298.016191    -26.790162
PG23 -14476.739608  12300.338189 -18453.552867    249.399481
PG24 -21878.978626 -15451.958742   -151.227516   -477.434097
PG25 -15456.663295    408.081642  21241.217981    497.283514
PG26  -4257.858342  25915.677318   2092.976959    137.586361
PG27   2418.410610  15305.372402 -21828.093862    -28.071361
PG28  -6626.507092  13996.737849  21568.187849   -287.167542
PG29 -25812.447429   2872.188536   5802.844494   -594.388567
PG30  12208.358647 -10117.109225 -21175.643433   -374.873178
PG31   3680.752687  19596.601717  17135.547766   -227.413123
PG32 -17960.607777  15457.856809  12005.774456   -616.335780
PR01 -20016.851271  14854.756788  -5458.916410     88.273236
PR02 -13260.724050  18383.330442  11683.428056    -23.262234
PR03   1741.431568  12318.308019  22307.566247    101.999471
PR04  15100.348651   -343.907239  20588.801369    240.906413
PR05  20686.072305 -12728.019331   7838.774535    133.022997
PR07  -2296.089869 -11889.592484 -22414.734727     84.487249
PR08 -15289.083362    625.258913 -20337.900048     -4.930905
PR09   1127.720890 -22318.290877 -12197.817924    192.004376
PR11 -11622.315973 -13559.973555  18217.507728     21.537599
PR12  -9557.504994   7321.458570  22515.623096     41.266395
PR13  -2678.919211  20868.314497  14413.904058    -48.316828
PR14   7286.484607  24011.898009  -4636.241109     26.562047
PR15  11772.583904  12116.407287 -19092.235852     78.849781
PR16   9442.725348  -7068.670608 -22598.158876     26.449959
PR17  14154.424895  13093.155409 -16674.244039     95.500771
PR18  23644.924292   9483.096047  -1702.133858    146.821805
PR19  21908.103106   2641.669262  12783.026555   -280.192741
PR20   5143.130544  -9125.332449  23260.546525   -114.437207
PR21 -13877.024716 -13175.012646  16876.732297   -108.949805
PR22 -23612.013330  -9622.730997    554.623771    103.164970
PR24  -4300.707725  10019.539635 -23050.341846    -59.701187
PR25 -13849.860965 -13855.981018  16349.855811    -51.929752
PR26 -14505.911458   -338.492718 -20964.290638     -6.398382
EOF
